[{"OBJECT_NAME":"STARLINK-5376","OBJECT_ID":"2023-046BC","EPOCH":"2026-03-09T22:00:01.999584","MEAN_MOTION":15.13074474,"ECCENTRICITY":0.00020856,"INCLINATION":43.0003,"RA_OF_ASC_NODE":144.1718,"ARG_OF_PERICENTER":273.2498,"MEAN_ANOMALY":52.6444,"EPHEMERIS_TYPE":0,"CLASSIFICATION_TYPE":"U","NORAD_CAT_ID":56142,"ELEMENT_SET_NO":999,"REV_AT_EPOCH":567,"BSTAR":0.00041642388,"MEAN_MOTION_DOT":7.28e-5,"MEAN_MOTION_DDOT":0},{"OBJECT_NAME":"OBJECT P","OBJECT_ID":"2024-205P","EPOCH":"2026-03-09T08:03:09.212256","MEAN_MOTION":15.17390537,"ECCENTRICITY":0.00135969,"INCLINATION":97.4202,"RA_OF_ASC_NODE":142.9505,"ARG_OF_PERICENTER":48.7292,"MEAN_ANOMALY":311.511,"EPHEMERIS_TYPE":0,"CLASSIFICATION_TYPE":"U","NORAD_CAT_ID":61907,"ELEMENT_SET_NO":999,"REV_AT_EPOCH":7319,"BSTAR":0.00033938213,"MEAN_MOTION_DOT":6.731e-5,"MEAN_MOTION_DDOT":0}]
